OBJECT_NAME,OBJECT_ID,EPOCH,MEAN_MOTION,ECCENTRICITY,INCLINATION,RA_OF_ASC_NODE,ARG_OF_PERICENTER,MEAN_ANOMALY,EPHEMERIS_TYPE,CLASSIFICATION_TYPE,NORAD_CAT_ID,ELEMENT_SET_NO,REV_AT_EPOCH,BSTAR,MEAN_MOTION_DOT,MEAN_MOTION_DDOT
INTELSAT 21 (IS-21),2012-045A,2026-06-09T11:21:01.340352,1.00267497,.00017059,0.0247,280.5498,177.4937,272.0574,0,U,38749,999,5044,0,-.268E-5,0
INTELSAT 23 (IS-23),2012-057A,2026-06-09T19:55:44.289408,1.00268891,.0000137,0.0185,298.0077,112.6044,93.5378,0,U,38867,999,4988,0,-.267E-5,0
FM-6,2013-058A,2026-06-08T15:06:37.024416,1.00255605,.00027713,0.0107,82.6412,69.5183,215.1325,0,U,39360,999,4598,0,.3E-7,0
INTELSAT 30 (IS-30),2014-062A,2026-06-09T11:01:24.516192,1.00267702,.00008753,0.0210,37.4356,356.8023,293.8423,0,U,40271,999,671,0,-.133E-5,0
DIRECTV 14,2014-078B,2026-06-09T01:17:09.208320,1.00271044,.00002356,0.0091,1.3268,206.1301,330.0282,0,U,40333,999,4196,0,-.109E-5,0
DIRECTV 15,2015-026A,2026-06-09T00:52:13.105056,1.00272723,.00005417,0.0035,71.5412,190.7091,265.3619,0,U,40663,999,4038,0,-.86E-6,0
SKY MEXICO-1,2015-026B,2026-06-09T09:56:01.398912,1.00271354,.00021478,0.0131,295.8908,161.2945,230.8166,0,U,40664,999,4037,0,-.217E-5,0
INTELSAT 34 (IS-34),2015-039A,2026-06-09T19:55:06.848832,1.00270562,.00003796,0.0123,320.1624,21.6434,159.6937,0,U,40874,999,3956,0,-.268E-5,0
INTELSAT 31 (IS-31),2016-035A,2026-06-09T11:01:24.568032,1.00270432,.00009208,0.0197,262.6352,341.1411,84.3698,0,U,41581,999,3660,0,-.134E-5,0
INTELSAT 36 (IS-36),2016-053A,2026-06-09T20:30:25.310304,1.00270461,.0001894,0.0109,353.2567,341.8083,299.2589,0,U,41747,999,3588,0,-.7E-7,0
INTELSAT 32E (IS-32E),2017-007B,2026-06-09T02:04:35.551776,1.00274840,.0000672,0.0023,348.0424,336.8096,280.6015,0,U,41945,999,3414,0,-.252E-5,0
INTELSAT 35E (IS-35E),2017-041A,2026-06-09T11:27:45.694080,1.00271510,.00016335,0.0189,7.5995,70.2855,317.4382,0,U,42818,999,3273,0,-.221E-5,0
INTELSAT 37E (IS-37E),2017-059A,2026-06-09T16:40:27.417792,1.00269881,.00022983,0.0188,12.8762,89.4990,27.8102,0,U,42950,999,3199,0,-.124E-5,0
AZERSPACE 2 (IS-38),2018-074A,2026-06-09T15:15:47.165184,1.00271653,.00013638,0.0179,328.1038,108.5092,95.4531,0,U,43632,999,2837,0,.154E-5,0
HORIZONS-3E,2018-074B,2026-06-09T03:52:26.934240,1.00270197,.0000957,0.0093,158.1609,124.5481,201.9406,0,U,43633,999,2826,0,-.14E-6,0
AT&T T-16,2019-034A,2026-06-09T16:16:49.046880,1.00268740,.00006409,0.0247,68.1337,190.5571,142.7032,0,U,44333,999,2555,0,-.98E-6,0
INTELSAT 39 (IS-39),2019-049B,2026-06-09T00:09:47.202048,1.00266551,.00011559,0.0162,310.4453,11.0959,0.2561,0,U,44476,999,2504,0,.51E-6,0
GALAXY 30 (G-30),2020-056C,2026-06-09T17:52:36.705792,1.00273387,.0002141,0.0181,315.9250,118.6738,326.6745,0,U,46114,999,2121,0,.54E-6,0
GALAXY 33 (G-33),2022-128A,2026-06-09T17:50:21.921792,1.00271514,.00018241,0.0110,313.2581,132.3823,307.0828,0,U,54026,999,1366,0,.96E-6,0
GALAXY 34 (G-34),2022-128B,2026-06-08T23:02:06.902304,1.00274719,.00018617,0.0154,329.7482,136.9348,7.2031,0,U,54027,999,1383,0,.75E-6,0
GALAXY 31 (G-31),2022-153A,2026-06-09T17:53:36.611232,1.00272103,.00012619,0.0138,277.4263,160.8139,327.2867,0,U,54243,999,705,0,.3E-6,0
GALAXY 32 (G-32),2022-153B,2026-06-09T07:46:18.681312,1.00270919,.00021646,0.0091,331.9838,65.0548,246.2445,0,U,54244,999,1306,0,-.157E-5,0
GALAXY 35 (G-35),2022-170A,2026-06-09T11:00:24.946848,1.00271145,.00020317,0.0337,106.4075,335.1959,248.2408,0,U,54741,999,1281,0,-.145E-5,0
GALAXY 36 (G-36),2022-170B,2026-06-09T14:37:33.404160,1.00270735,.00026437,0.0021,112.9711,330.7721,304.6330,0,U,54742,999,1269,0,-.168E-5,0
GALAXY 37 (G-37),2023-112A,2026-06-09T16:09:19.764288,1.00271821,.00018837,0.0179,356.1906,84.3210,292.8728,0,U,57493,999,1046,0,.65E-6,0
